OPTICUBE 04             
1 41851U 16067D   18154.48549071 -.00000381  00000-0 -28032-4 0  9999
2 41851  97.9236 242.4303 0008176 203.1178 156.9676 14.96668660 85048
AEROCUBE 8D             
1 41852U 16067E   18154.18642161  .00000812  00000-0  76802-4 0  9996
2 41852  97.9247 241.9719 0009170 202.6704 157.4113 14.96487019 84981
AEROCUBE 8C             
1 41853U 16067F   18154.46770025  .00000656  00000-0  63122-4 0  9996
2 41853  97.9251 242.2209 0009330 203.0181 157.0623 14.96455404 85028
PROMETHEUS 2-1          
1 41854U 16067G   18154.54196256  .00000389  00000-0  39501-4 0  9991
2 41854  97.9257 242.3018 0009598 203.1875 156.8914 14.96556725 85030
PROMETHEUS 2-3          
1 41855U 16067H   18154.54456705  .00000240  00000-0  26410-4 0  9991
2 41855  97.9259 242.3084 0009775 204.0751 156.0014 14.96553731 85033
ITF-2                   
1 41932U 98067KU  18154.09993554  .00041146  00000-0  26791-3 0  9996
2 41932  51.6344  53.3966 0004726 136.4146 223.7228 15.75477132 78542
WASEDA-SAT3             
1 41933U 98067KV  18154.57559890  .00059057  00000-0  28998-3 0  9992
2 41933  51.6349  44.4287 0004237 143.6183 216.5108 15.81612524 78701
AOBA-VELOX 3            
1 41935U 98067KX  18154.27709736  .00060223  00000-0  33050-3 0  9999
2 41935  51.6368  48.5221 0004618 140.9204 219.2131 15.79169479 78725
INS-1B                  
1 41954U 17008G   18154.52320639  .00001596  00000-0  70873-4 0  9998
2 41954  97.4468 218.6025 0010647  49.0516 311.1640 15.22975512 71924
BGUSAT                  
1 41999U 17008BD  18154.51035818  .00003012  00000-0  12520-3 0  9997
2 41999  97.4505 219.6063 0010072  66.0307 294.1984 15.24539941 71348
DIDO-2                  
1 42000U 17008BE  18154.59805397  .00001234  00000-0  55172-4 0  9991
2 42000  97.4485 219.1012 0010212  65.3870 294.8430 15.23171945 71338
PEASSS                  
1 42015U 17008BV  18154.51801254  .00001470  00000-0  63645-4 0  9993
2 42015  97.4482 219.4622 0008198  73.1151 287.0984 15.23977797 71832
AL-FARABI 1             
1 42016U 17008BW  18154.44867877  .00002250  00000-0  94721-4 0  9995
2 42016  97.4485 219.5808 0008122  73.9643 286.2489 15.24383550 71957
NAYIF-1 (EO-88)         
1 42017U 17008BX  18154.44314941  .00002331  00000-0  97956-4 0  9998
2 42017  97.4483 219.5818 0008098  74.2419 285.9710 15.24407457 71972
HAVELSAT                
1 42700U 98067LH  18154.27980045  .00040110  00000-0  32295-3 0  9997
2 42700  51.6360  65.8666 0003861 172.7465 187.3590 15.70502030 59834
CXBN-2                  
1 42704U 98067LM  18154.16987720  .00037355  00000-0  30696-3 0  9996
2 42704  51.6366  67.3991 0003219 113.5600 246.5736 15.70047029 59723
ICECUBE                 
1 42705U 98067LN  18154.33382377  .00086793  00000-0  50101-3 0  9996
2 42705  51.6452  59.5643 0003604 141.7980 218.3277 15.77904389 59904
PHOENIX                 
1 42706U 98067LP  18154.22116588  .00028305  00000-0  24797-3 0  9991
2 42706  51.6363  67.7367 0002367 111.6321 248.4928 15.68638909 59718
X-CUBESAT               
1 42707U 98067LQ  18154.20137379  .00039631  00000-0  31309-3 0  9992
2 42707  51.6329  66.0316 0002580 119.1647 240.9609 15.70967490 59725
QBEE50-LTU-OC           
1 42708U 98067LR  18154.58628416  .00029180  00000-0  23992-3 0  9998
2 42708  51.6367  64.9066 0002551 118.2860 241.8395 15.70164834 59736
ALTAIR PATHFINDER       
1 42711U 98067LS  18154.39287986  .00019168  00000-0  20372-3 0  9998
2 42711  51.6369  73.3952 0004646 120.0654 240.0802 15.64059123 59314
SHARC                   
1 42712U 98067LT  18154.39404367  .00029781  00000-0  31717-3 0  9990
2 42712  51.6385  74.9583 0003508 120.8492 239.2849 15.63722671 59533
ZA-AEROSAT              
1 42713U 98067LU  18154.23836175  .00027758  00000-0  25648-3 0  9998
2 42713  51.6354  70.0904 0003403 107.9562 252.1805 15.67336318 59340
LINK                    
1 42714U 98067LV  18154.15424742  .00086488  00000-0  48456-3 0  9990
2 42714  51.6267  60.3665 0003916 118.4285 241.7111 15.78570464 59571
CSUNSAT 1               
1 42715U 98067LW  18154.58139630  .00024047  00000-0  21780-3 0  9991
2 42715  51.6362  67.9004 0004891 114.8694 245.2811 15.67912015 59403
SPACECUBE               
1 42717U 98067LY  18154.23012822  .00036527  00000-0  29959-3 0  9990
2 42717  51.6343  67.0095 0002888 160.4264 199.6844 15.70104936 58753
HOOPOE                  
1 42718U 98067LZ  18154.34906061  .00046747  00000-0  34446-3 0  9992
2 42718  51.6353  64.0568 0002922 153.6333 206.4814 15.72547093 58804
CHALLENGER              
1 42721U 98067MA  18154.17687017  .00139883  00000-0  59290-3 0  9992
2 42721  51.6290  55.9901 0005307 160.3759 199.7450 15.84388877 58597
NJUST-1                 
1 42722U 98067MB  18154.29067231  .00024363  00000-0  23405-3 0  9991
2 42722  51.6364  71.2094 0005489 164.2049 195.9119 15.66437693 58401
UNSW-ECO                
1 42723U 98067MC  18154.35571867  .00051181  00000-0  36633-3 0  9999
2 42723  51.6373  64.1310 0005000 157.4475 202.6744 15.73181986 58487
LILACSAT-1              
1 42725U 98067ME  18154.35388648  .00030854  00000-0  26827-3 0  9992
2 42725  51.6366  68.6237 0004564 159.9564 200.1613 15.68767884 58342
NSIGHT-1                
1 42726U 98067MF  18154.29742960  .00009812  00000-0  11894-3 0  9995
2 42726  51.6390  77.3105 0005257 170.3014 189.8082 15.61342495 58239
SNUSAT-1                
1 42727U 98067MG  18154.17369194  .00034390  00000-0  29926-3 0  9991
2 42727  51.6345  69.6211 0006836 133.4548 226.7018 15.68674916 58286
I-INSPIRE II            
1 42731U 98067ML  18154.35406823  .00057085  00000-0  39757-3 0  9996
2 42731  51.6340  63.2988 0006303 125.9246 234.2339 15.73765873 58275
POLYITAN-2-SAU          
1 42732U 98067MM  18154.33206952  .00037825  00000-0  30122-3 0  9993
2 42732  51.6353  66.1862 0006452 122.6338 237.5283 15.70778572 58231
SNUSAT-1B               
1 42733U 98067MN  18154.21510920  .00035243  00000-0  29837-3 0  9997
2 42733  51.6358  68.4218 0006568 124.5311 235.6307 15.69335001 58192
EXALTA-1                
1 42734U 98067MP  18154.21479114  .00058869  00000-0  40053-3 0  9999
2 42734  51.6330  63.8449 0006783 143.4822 216.6641 15.74291968 58205
BEEAGLESAT              
1 42736U 98067MR  18154.32766304  .00030241  00000-0  27036-3 0  9993
2 42736  51.6354  69.1737 0005710 161.0317 199.0893 15.68089822 58251
UCLSAT                  
1 42765U 17036A   18154.59838867  .00001571  00000-0  72086-4 0  9995
2 42765  97.4016 214.6659 0013417 120.4564 239.8000 15.21819491 53230
LITUANICASAT-2          
1 42768U 17036D   18154.58557770  .00002936  00000-0  13379-3 0  9993
2 42768  97.4027 214.2606 0017567 112.4043 247.9056 15.21320895 52499
AALTO-1                 
1 42775U 17036L   18154.60999356  .00001078  00000-0  51998-4 0  9990
2 42775  97.4010 214.1894 0015908 110.1441 250.1508 15.20728518 52436
URSA MAIOR              
1 42776U 17036M   18154.59725198  .00001159  00000-0  55543-4 0  9990
2 42776  97.4017 214.2252 0015745 110.3799 249.9130 15.20804085 52431
COMPASS 2               
1 42777U 17036N   18154.59724020  .00002293  00000-0  10414-3 0  9991
2 42777  97.4033 214.5896 0014738 113.4608 246.8179 15.21690219 52444
DIAMOND RED             
1 42783U 17036U   18154.59383558  .00001318  00000-0  61649-4 0  9999
2 42783  97.4018 214.5257 0014017 120.6931 239.5688 15.21431668 52449
PEGASUS                 
1 42784U 17036V   18154.37109418  .00001610  00000-0  74190-4 0  9997
2 42784  97.4020 214.3715 0013907 121.4562 238.8035 15.21630496 52411
DIAMOND GREEN           
1 42785U 17036W   18154.59274477  .00001339  00000-0  62579-4 0  9996
2 42785  97.4020 214.5373 0013896 121.2279 239.0321 15.21434613 52519
DIAMOND BLUE            
1 42786U 17036X   18154.59187918  .00001315  00000-0  61525-4 0  9994
2 42786  97.4019 214.5366 0013725 121.3765 238.8815 15.21434243 52516
NUDTSAT                 
1 42787U 17036Y   18154.55750392  .00002419  00000-0  10819-3 0  9998
2 42787  97.4021 214.7431 0013525 120.6109 239.6463 15.22192046 52293
SUCHAI                  
1 42788U 17036Z   18154.59376278  .00001742  00000-0  79427-4 0  9999
2 42788  97.4020 214.6830 0013551 120.5647 239.6928 15.21893349 52525
SKCUBE                  
1 42789U 17036AA  18154.59285607  .00001632  00000-0  74672-4 0  9990
2 42789  97.4019 214.6781 0013379 120.4576 239.7984 15.21858423 52445
VZLUSAT-1               
1 42790U 17036AB  18154.61273117  .00002284  00000-0  10225-3 0  9995
2 42790  97.4018 214.8055 0013097 120.6358 239.6171 15.22213647 52451
ROBUSTA-1B              
1 42792U 17036AD  18154.43129500  .00001824  00000-0  82783-4 0  9991
2 42792  97.4018 214.5787 0012926 121.7623 238.4874 15.21999090 52436
CICERO 6                
1 42793U 17036AE  18154.22691380  .00001120  00000-0  52249-4 0  9992
2 42793  97.4011 214.3784 0012042 123.0175 237.2220 15.21851269 52472
D-SAT                   
1 42794U 17036AF  18154.21757992  .00000347  00000-0  35927-4 0  9998
2 42794  97.5924 209.4007 0126211 329.3859  30.0035 14.90864272 51648
TOKI                    
1 42820U 98067MU  18154.19896402  .00031243  00000-0  28941-3 0  9994
2 42820  51.6355  72.0723 0004088 104.0567 256.0883 15.67204500 51689
MAZAALAI (NUMSAT-1)     
1 42822U 98067MW  18154.23008703  .00030548  00000-0  28616-3 0  9996
2 42822  51.6357  72.2853 0004032 107.2708 252.8730 15.66938897 51665
BRAC ONNESHA            
1 42823U 98067MX  18154.22690113  .00030327  00000-0  28303-3 0  9996
2 42823  51.6364  72.2807 0006041 127.2586 232.8962 15.67024458 51644
NIGERIAEDUSAT-1         
1 42824U 98067MY  18154.18554563  .00029977  00000-0  28205-3 0  9990
2 42824  51.6368  72.7698 0005941 126.9222 233.2319 15.66829436 51620
CORVUS BC2              
1 42846U 17042X   18154.32211807  .00000159  00000-0  21075-4 0  9995
2 42846  97.5986  57.6955 0008214 238.2275 121.8144 14.91814640 48305
